IRIDIUM 7               
1 24793U 97020B   24343.29352204  .00001016  00000+0  34553-3 0  9996
2 24793  86.3962 256.8585 0002389  76.7613 283.3850 14.35650467444723
IRIDIUM 5               
1 24795U 97020D   24343.49213658  .00007546  00000+0  65970-3 0  9990
2 24795  86.3923 171.4247 0116916 101.2075 260.2321 14.91392416457042
IRIDIUM 4               
1 24796U 97020E   24342.84031032  .00001027  00000+0  34302-3 0  9996
2 24796  86.3960 254.0496 0002353  83.4955 276.6510 14.36562925444999
IRIDIUM 914             
1 24836U 97030A   24342.88762428  .00001321  00000+0  40922-3 0  9998
2 24836  86.3934 263.2113 0003662 103.2211 256.9397 14.40517785579580
IRIDIUM 16              
1 24841U 97030F   24343.39688673  .00001277  00000+0  41276-3 0  9993
2 24841  86.4016 285.4389 0002526  30.3171 329.8173 14.38382395439831
IRIDIUM 911             
1 24842U 97030G   24343.38221012  .00001759  00000+0  47618-3 0  9994
2 24842  86.4442 284.4098 0015248  22.7015 337.4859 14.47180684447469
IRIDIUM 17              
1 24870U 97034B   24343.19656811  .00001293  00000+0  42590-3 0  9994
2 24870  86.3940 315.0950 0000811  58.3467 301.7810 14.37482770436140
IRIDIUM 920             
1 24871U 97034C   24343.17459813  .00001378  00000+0  42103-3 0  9990
2 24871  86.3955 294.7607 0011670   4.0032 356.1259 14.41189007439326
